{"type": "FeatureCollection", "features": [ {"type": "Feature", "properties": {"norad_id": 31482, "name": "FENGYUN 1C DEB", "group": "fengyun-1c-debris", "lat": 71.92246239406235, "lon": -172.26691128611324, "alt_km": 823.2267633808078, "timestamp": "2025-12-02T17:49:12.310603+00:00", "meta": {"OBJECT_NAME": "FENGYUN 1C DEB", "OBJECT_ID": "1999-025BVW", "EPOCH": "2025-12-02T05:53:42.254016", "MEAN_MOTION": 14.35578741, "ECCENTRICITY": 0.0089194, "INCLINATION": 98.3825, "RA_OF_ASC_NODE": 340.3958, "ARG_OF_PERICENTER": 313.9076, "MEAN_ANOMALY": 105.2624, "EPHEMERIS_TYPE": 0, "CLASSIFICATION_TYPE": "U", "NORAD_CAT_ID": 31482, "ELEMENT_SET_NO": 999, "REV_AT_EPOCH": 96979, "BSTAR": 0.00102, "MEAN_MOTION_DOT": 3.031e-05, "MEAN_MOTION_DDOT": 0}, "tle": {"line1": "1 31482U 99025BVW 25336.24562794  .00003031  00000+0  10200-2 0  9992", "line2": "2 31482  98.3825 340.3958 0089194 313.9076 105.2624 14.35578741969792"}}, "geometry": {"type": "Point", "coordinates": [-172.26691128611324, 71.92246239406235]}}, {"type": "Feature", "properties": {"norad_id": 31483, "name": "FENGYUN 1C DEB", "group": "fengyun-1c-debris", "lat": -58.261741415520284, "lon": -55.95057882655289, "alt_km": 794.2230934185418, "timestamp": "2025-12-02T17:49:12.310614+00:00", "meta": {"OBJECT_NAME": "FENGYUN 1C DEB", "OBJECT_ID": "1999-025BVX", "EPOCH": "2025-12-02T08:39:24.765984", "MEAN_MOTION": 14.15817741, "ECCENTRICITY": 0.0119616, "INCLINATION": 102.5021, "RA_OF_ASC_NODE": 282.4949, "ARG_OF_PERICENTER": 247.0767, "MEAN_ANOMALY": 266.2273, "EPHEMERIS_TYPE": 0, "CLASSIFICATION_TYPE": "U", "NORAD_CAT_ID": 31483, "ELEMENT_SET_NO": 999, "REV_AT_EPOCH": 94559, "BSTAR": 0.0032149, "MEAN_MOTION_DOT": 6.706e-05, "MEAN_MOTION_DDOT": 0}, "tle": {"line1": "1 31483U 99025BVX 25336.36070331  .00006706  00000+0  32149-2 0  9995", "line2": "2 31483 102.5021 282.4949 0119616 247.0767 266.2273 14.15817741945596"}}, "geometry": {"type": "Point", "coordinates": [-55.95057882655289, -58.261741415520284]}}, {"type": "Feature", "properties": {"norad_id": 31484, "name": "FENGYUN 1C DEB", "group": "fengyun-1c-debris", "lat": 5.982666517980561, "lon": 90.41786904038673, "alt_km": 670.1060107668718, "timestamp": "2025-12-02T17:49:12.310624+00:00", "meta": {"OBJECT_NAME": "FENGYUN 1C DEB", "OBJECT_ID": "1999-025BVY", "EPOCH": "2025-12-01T06:14:16.664640", "MEAN_MOTION": 14.4971956, "ECCENTRICITY": 0.00824182, "INCLINATION": 101.8049, "RA_OF_ASC_NODE": 267.0929, "ARG_OF_PERICENTER": 183.373, "MEAN_ANOMALY": 176.6905, "EPHEMERIS_TYPE": 0, "CLASSIFICATION_TYPE": "U", "NORAD_CAT_ID": 31484, "ELEMENT_SET_NO": 999, "REV_AT_EPOCH": 64071, "BSTAR": 0.0059253262, "MEAN_MOTION_DOT": 0.00023837, "MEAN_MOTION_DDOT": 0}, "tle": {"line1": "1 31484U 99025BVY 25335.25991510  .00023837  00000+0  59253-2 0  9993", "line2": "2 31484 101.8049 267.0929 0082418 183.3730 176.6905 14.49719560640716"}}, "geometry": {"type": "Point", "coordinates": [90.41786904038673, 5.982666517980561]}}, {"type": "Feature", "properties": {"norad_id": 31485, "name": "FENGYUN 1C DEB", "group": "fengyun-1c-debris", "lat": -71.71925280666619, "lon": -61.71310983663457, "alt_km": 1065.5449797076135, "timestamp": "2025-12-02T17:49:12.310634+00:00", "meta": {"OBJECT_NAME": "FENGYUN 1C DEB", "OBJECT_ID": "1999-025BVZ", "EPOCH": "2025-12-02T11:08:01.958784", "MEAN_MOTION": 13.39964394, "ECCENTRICITY": 0.0445417, "INCLINATION": 102.7191, "RA_OF_ASC_NODE": 161.0675, "ARG_OF_PERICENTER": 341.0819, "MEAN_ANOMALY": 17.4198, "EPHEMERIS_TYPE": 0, "CLASSIFICATION_TYPE": "U", "NORAD_CAT_ID": 31485, "ELEMENT_SET_NO": 999, "REV_AT_EPOCH": 90307, "BSTAR": 0.003837, "MEAN_MOTION_DOT": 3.669e-05, "MEAN_MOTION_DDOT": 0}, "tle": {"line1": "1 31485U 99025BVZ 25336.46391156  .00003669  00000+0  38370-2 0  9996", "line2": "2 31485 102.7191 161.0675 0445417 341.0819  17.4198 13.39964394903071"}}, "geometry": {"type": "Point", "coordinates": [-61.71310983663457, -71.71925280666619]}}, {"type": "Feature", "properties": {"norad_id": 31487, "name": "FENGYUN 1C DEB", "group": "fengyun-1c-debris", "lat": 68.62363112733624, "lon": -4.027184865940526, "alt_km": 958.5192246057359, "timestamp": "2025-12-02T17:49:12.310652+00:00", "meta": {"OBJECT_NAME": "FENGYUN 1C DEB", "OBJECT_ID": "1999-025BWB", "EPOCH": "2025-12-02T06:08:26.132064", "MEAN_MOTION": 13.97663121, "ECCENTRICITY": 0.0119744, "INCLINATION": 102.4135, "RA_OF_ASC_NODE": 141.0753, "ARG_OF_PERICENTER": 331.4925, "MEAN_ANOMALY": 207.6466, "EPHEMERIS_TYPE": 0, "CLASSIFICATION_TYPE": "U", "NORAD_CAT_ID": 31487, "ELEMENT_SET_NO": 999, "REV_AT_EPOCH": 94265, "BSTAR": 0.0016318, "MEAN_MOTION_DOT": 2.376e-05, "MEAN_MOTION_DDOT": 0}, "tle": {"line1": "1 31487U 99025BWB 25336.25585801  .00002376  00000+0  16318-2 0  9999", "line2": "2 31487 102.4135 141.0753 0119744 331.4925 207.6466 13.97663121942651"}}, "geometry": {"type": "Point", "coordinates": [-4.027184865940526, 68.62363112733624]}}, {"type": "Feature", "properties": {"norad_id": 31491, "name": "FENGYUN 1C DEB", "group": "fengyun-1c-debris", "lat": -30.42315540046487, "lon": -109.5923129630653, "alt_km": 808.3806440555963, "timestamp": "2025-12-02T17:49:12.310663+00:00", "meta": {"OBJECT_NAME": "FENGYUN 1C DEB", "OBJECT_ID": "1999-025BWE", "EPOCH": "2025-11-29T05:14:19.576896", "MEAN_MOTION": 14.17099923, "ECCENTRICITY": 0.00534374, "INCLINATION": 99.302, "RA_OF_ASC_NODE": 241.2001, "ARG_OF_PERICENTER": 306.7475, "MEAN_ANOMALY": 52.8798, "EPHEMERIS_TYPE": 0, "CLASSIFICATION_TYPE": "U", "NORAD_CAT_ID": 31491, "ELEMENT_SET_NO": 999, "REV_AT_EPOCH": 63536, "BSTAR": 0.0019103725, "MEAN_MOTION_DOT": 3.854e-05, "MEAN_MOTION_DDOT": 0}, "tle": {"line1": "1 31491U 99025BWE 25333.21828214  .00003854  00000+0  19104-2 0  9993", "line2": "2 31491  99.3020 241.2001 0053437 306.7475  52.8798 14.17099923635364"}}, "geometry": {"type": "Point", "coordinates": [-109.5923129630653, -30.42315540046487]}}, {"type": "Feature", "properties": {"norad_id": 31492, "name": "FENGYUN 1C DEB", "group": "fengyun-1c-debris", "lat": 70.07088975740858, "lon": -12.630257259769978, "alt_km": 636.6691441358389, "timestamp": "2025-12-02T17:49:12.310673+00:00", "meta": {"OBJECT_NAME": "FENGYUN 1C DEB", "OBJECT_ID": "1999-025BWF", "EPOCH": "2025-11-30T16:19:50.588832", "MEAN_MOTION": 14.70037284, "ECCENTRICITY": 0.00642617, "INCLINATION": 98.8558, "RA_OF_ASC_NODE": 139.6647, "ARG_OF_PERICENTER": 46.3479, "MEAN_ANOMALY": 314.3027, "EPHEMERIS_TYPE": 0, "CLASSIFICATION_TYPE": "U", "NORAD_CAT_ID": 31492, "ELEMENT_SET_NO": 999, "REV_AT_EPOCH": 96329, "BSTAR": 0.0030343762, "MEAN_MOTION_DOT": 0.00018787, "MEAN_MOTION_DDOT": 0}, "tle": {"line1": "1 31492U 99025BWF 25334.68044663  .00018787  00000+0  30344-2 0  9994", "line2": "2 31492  98.8558 139.6647 0064261  46.3479 314.3027 14.70037284963297"}}, "geometry": {"type": "Point", "coordinates": [-12.630257259769978, 70.07088975740858]}}, {"type": "Feature", "properties": {"norad_id": 31493, "name": "FENGYUN 1C DEB", "group": "fengyun-1c-debris", "lat": -32.706653354056094, "lon": -71.7084567468119, "alt_km": 972.026427591145, "timestamp": "2025-12-02T17:49:12.310683+00:00", "meta": {"OBJECT_NAME": "FENGYUN 1C DEB", "OBJECT_ID": "1999-025BWG", "EPOCH": "2025-11-30T02:11:52.626912", "MEAN_MOTION": 13.92931, "ECCENTRICITY": 0.01170362, "INCLINATION": 100.1349, "RA_OF_ASC_NODE": 278.7968, "ARG_OF_PERICENTER": 209.2895, "MEAN_ANOMALY": 150.1667, "EPHEMERIS_TYPE": 0, "CLASSIFICATION_TYPE": "U", "NORAD_CAT_ID": 31493, "ELEMENT_SET_NO": 999, "REV_AT_EPOCH": 59690, "BSTAR": 0.0007972621, "MEAN_MOTION_DOT": 1.042e-05, "MEAN_MOTION_DDOT": 0}, "tle": {"line1": "1 31493U 99025BWG 25334.09158133  .00001042  00000+0  79726-3 0  9992", "line2": "2 31493 100.1349 278.7968 0117036 209.2895 150.1667 13.92931000596903"}}, "geometry": {"type": "Point", "coordinates": [-71.7084567468119, -32.706653354056094]}}, {"type": "Feature", "properties": {"norad_id": 31495, "name": "FENGYUN 1C DEB", "group": "fengyun-1c-debris", "lat": -64.87371981350714, "lon": -130.51337585942764, "alt_km": 800.235141268522, "timestamp": "2025-12-02T17:49:12.310694+00:00", "meta": {"OBJECT_NAME": "FENGYUN 1C DEB", "OBJECT_ID": "1999-025BWJ", "EPOCH": "2025-11-29T09:28:29.855136", "MEAN_MOTION": 14.2907414, "ECCENTRICITY": 0.00253264, "INCLINATION": 99.1199, "RA_OF_ASC_NODE": 205.9571, "ARG_OF_PERICENTER": 218.4335, "MEAN_ANOMALY": 141.5042, "EPHEMERIS_TYPE": 0, "CLASSIFICATION_TYPE": "U", "NORAD_CAT_ID": 31495, "ELEMENT_SET_NO": 999, "REV_AT_EPOCH": 63200, "BSTAR": 0.0012827316, "MEAN_MOTION_DOT": 3.214e-05, "MEAN_MOTION_DDOT": 0}, "tle": {"line1": "1 31495U 99025BWJ 25333.39478999  .00003214  00000+0  12827-2 0  9992", "line2": "2 31495  99.1199 205.9571 0025326 218.4335 141.5042 14.29074140632005"}}, "geometry": {"type": "Point", "coordinates": [-130.51337585942764, -64.87371981350714]}}, {"type": "Feature", "properties": {"norad_id": 31497, "name": "FENGYUN 1C DEB", "group": "fengyun-1c-debris", "lat": 81.59449215369187, "lon": -124.52467648484458, "alt_km": 722.9905099776142, "timestamp": "2025-12-02T17:49:12.310704+00:00", "meta": {"OBJECT_NAME": "FENGYUN 1C DEB", "OBJECT_ID": "1999-025BWL", "EPOCH": "2025-11-30T19:14:30.156288", "MEAN_MOTION": 14.39183489, "ECCENTRICITY": 0.01686601, "INCLINATION": 98.3694, "RA_OF_ASC_NODE": 318.6423, "ARG_OF_PERICENTER": 18.9522, "MEAN_ANOMALY": 99.0471, "EPHEMERIS_TYPE": 0, "CLASSIFICATION_TYPE": "U", "NORAD_CAT_ID": 31497, "ELEMENT_SET_NO": 999, "REV_AT_EPOCH": 97383, "BSTAR": 0.00028330804, "MEAN_MOTION_DOT": 9.88e-06, "MEAN_MOTION_DDOT": 0}, "tle": {"line1": "1 31497U 99025BWL 25334.80173792  .00000988  00000+0  28331-3 0  9997", "line2": "2 31497  98.3694 318.6423 0168660  18.9522  99.0471 14.39183489973836"}}, "geometry": {"type": "Point", "coordinates": [-124.52467648484458, 81.59449215369187]}}]}